K05ET6E  6.8   0.15 K14C9 247.44628  286.24048  342.04462    3.28619  0.0659093  0.00333006  44.4120895  3 MPO260750    34   4 2005-2013 0.42 M-v 38h MPCADO     0410          2005 EE296         20130313
K05ET6Z  7.1   0.15 K14C9 333.53920  210.93141   24.42229    1.77032  0.1525696  0.00395284  39.6153147  3 MPO224613    24   5 2005-2012 0.29 M-v 38h MPCADO     040E          2005 EZ296         20120103
K05ET7X  6.1   0.15 K14C9 275.94506  226.42973   28.34167    4.79554  0.1110902  0.00334334  44.2943779  3 MPO193980    17   6 2005-2011 0.18 M-v 38h MPCS       0410          2005 EX297         20110310
K05ET8F  6.1   0.15 K14C9 336.36563   74.24013  117.95826    2.86377  0.0947672  0.00334186  44.3075136  3 MPO264940    61   8 2005-2013 0.20 M-v 38h MPCADO     0410          2005 EF298         20130209
K05ET9B  8.3   0.15 K14C9   4.15897  177.12641  351.49773    0.70821  0.5170628  0.00257680  52.6924637  2 MPO227420    18   4 2005-2012 0.24 M-v 38h MPCADO     0411          2005 EB299         20120329
K05EU0Z  7.4   0.15 K14C9 322.97832  251.57981  357.08994   10.30974  0.2401890  0.00393945  39.7050473  2 MPO273888    30   6 2005-2013 0.25 M-v 38h MPCADO     000E          2005 EZ300         20130314
K05EU2N  7.0   0.15 K14C9 135.94086   12.47003   47.84768    3.05373  0.0812840  0.00324853  45.1521328  4 MPO273888    16   3 2005-2013 0.28 M-v 38h MPCADO     0010          2005 EN302         20130313
K05EU3M  7.5   0.15 K14C9 356.75835  100.56256  113.14061    5.60335  0.0224693  0.00341208  43.6975129  4 MPO264940    13   3 2005-2013 0.28 M-v 38h MPCADO     0010          2005 EM303         20130514
K05EU4F  7.3   0.15 K14C9 357.91072  198.08119   15.52994   18.68096  0.5584747  0.00120828  87.3019521  3 MPO140133    18   4 2005-2008 0.23 M-v 38h MPCW       0411          2005 EF304         20080608
K05EU4O  6.3   0.15 K14C9 327.50341  146.11076   93.84331    3.41582  0.0695556  0.00317950  45.8032990  4 MPO158495    25   4 2005-2009 0.25 M-v 38h MPCW       0410          2005 EO304         20090325
K05EV8B  6.7   0.15 K14C9  86.81417  305.51110  166.73413    4.47358  0.1445225  0.00324120  45.2201856  3 MPO273888    21   3 2005-2013 0.16 M-v 38h MPCADO     0010          2005 EB318         20130314
K05EV8C  6.4   0.15 K14C9 113.20771  298.98192  109.18386    2.53015  0.0325169  0.00337644  44.0044316  4 MPO227420    14   4 2005-2012 0.30 M-v 38h MPCADO     0410          2005 EC318         20120329
K05EV8R  7.8   0.15 K14C9 350.81969  209.30595  333.49740   10.40026  0.1667028  0.00442238  36.7591519  3 MPO157416    20   5 2005-2009 0.20 M-v 38h MPCM       040A          2005 ER318         20090325
K05EV8W  6.0   0.15 K14C9 163.48880  230.31808  128.53838    1.06085  0.0661743  0.00328786  44.7913115  4 MPO273888    18   3 2005-2013 0.22 M-v 38h MPCADO     0010          2005 EW318         20130312
K05GI6X  6.8   0.15 K14C9 331.08297   55.80958  158.86155    3.77498  0.0220963  0.00335624  44.1808444  3 MPO273889    15   4 2005-2013 0.14 M-v 38h MPCADO     0410          2005 GX186         20130314
K05GI7A  7.5   0.15 K14C9 300.43839  282.95481   27.70364   18.73200  0.2182951  0.00397824  39.4465029  5 MPO100949    19   2 2005-2006 0.18 M-v 38h MPCM       000E          2005 GA187         20060427
K05GI7B  7.3   0.15 K14C9  17.37831  348.84404  217.06796   14.68106  0.2380285  0.00396606  39.5272234  3 MPO157419    31   3 2005-2008 0.27 M-v 38h MPCM       000E          2005 GB187         20080405
K05GI7C  7.1   0.15 K14C9  21.21966  197.67615    2.09308    2.39488  0.1275895  0.00335335  44.2062360  4 MPO137371    18   3 2005-2008 0.27 M-v 38h MPCM       0010          2005 GC187         20080405
K05GI7D  7.2   0.15 K14C9 187.48631  340.06949  354.54117    0.69801  0.0141102  0.00346140  43.2814353  4 MPO273889    17   5 2005-2013 0.16 M-v 38h MPCADO     0410          2005 GD187         20130314
K05GI7E  7.1   0.15 K14C9 335.20588   85.60206  205.37655   18.24273  0.3238156  0.00399533  39.3339416  2 MPO140133    22   4 2001-2008 0.15 M-v 38h MPCW       040E          2005 GE187         20080607
K05GI7F  7.7   0.15 K14C9 348.36815  134.49946  128.81689    3.90900  0.2543615  0.00397709  39.4541245  3 MPO157419    26   4 2005-2009 0.24 M-v 38h MPCS       040E          2005 GF187         20090427
K05GL0V  6.8   0.15 K14C9 106.62941  261.48085  174.71878   11.99180  0.1700785  0.00398864  39.3779301  4 MPO138040    18   4 2005-2008 0.22 M-v 38h MPCW       000E          2005 GV210         20080303
K05GM8H  8.5   0.15 K14C9 351.36400  209.26971  311.82556   17.11956  0.1939220  0.00439122  36.9328022  3 MPO199690    22   5 2005-2010 0.29 M-v 38h MPCW       040A          2005 GH228         20100320
K05JH4Z  6.7   0.15 K14C9 290.30859  241.63039   59.18262    6.51152  0.0745478  0.00353438  42.6835150  4 MPO140134    18   3 2005-2008 0.35 M-v 38h MPCM       0010          2005 JZ174         20080606
K05JH5A  5.9   0.15 K14C9 166.87095  195.82567  225.08635   14.26204  0.1056046  0.00355974  42.4805608  5 MPO157422    23   3 2005-2008 0.25 M-v 38h MPCM       0010          2005 JA175         20080414
K05JH7H  6.9   0.15 K14C9  37.10529   59.52873  117.35703    3.27619  0.0981798  0.00330097  44.6726388  3 MPO175233    23   4 2005-2010 0.23 M-v 38h MPCADO     0410          2005 JH177         20100420
K05JH9P  6.0   0.15 K14C9  59.23734   22.67406  137.75276    2.09433  0.0307638  0.00349171  43.0305909  4 MPO154153    18   4 2005-2009 0.28 M-v 38h MPCADO     0410          2005 JP179         20090226
K05JH9R  5.9   0.15 K14C9  76.26990   61.47886   71.09624    3.74539  0.1173440  0.00305852  47.0032760  3 MPO140134    11   3 2005-2008 0.26 M-v 38h MPCM       0010          2005 JR179         20080606
K05JI5Y  6.8   0.15 K14C9 107.91151  109.89977   31.81063    2.13637  0.0708090  0.00337097  44.0520603  4 MPO198070    16   4 2005-2008 0.15 M-v 38h MPCW       0410          2005 JY185         20080507
K05JI6B  7.8   0.15 K14C9 340.44033   35.85789  238.39862   20.22750  0.1048223  0.00369222  41.4582703  4 MPO198070    17   3 2004-2006 0.10 M-v 38h MPCW       0010          2005 JB186         20060701
K05JI6J  6.5   0.15 K14C9 327.68011  237.80668   63.76556    4.14109  0.0919925  0.00331315  44.5631020  4 MPO198070    16   3 2005-2007 0.10 M-v 38h MPCW       0010          2005 JJ186         20070516
K05JI6K  6.6   0.15 K14C9 341.86633  229.05773   63.15341   27.26205  0.2421642  0.00304079  47.1858889  3 MPO201706    18   4 2005-2010 0.14 M-v 38h MPCW       0410          2005 JK186         20100320
K05L54A  6.5   0.15 K14C9 349.03239  196.61472   70.66328    7.92148  0.0658809  0.00334438  44.2852001  3 MPO264941    19   4 2005-2013 0.12 M-v 38h MPCADO     0410          2005 LA54          20130609
K05L54B  5.8   0.15 K14C9 352.05535  168.62611   96.05257    3.00710  0.0456857  0.00341732  43.6528253  3 MPO264941    15   4 2005-2013 0.12 M-v 38h MPCADO     0410          2005 LB54          20130609
K05L54C  6.7   0.15 K14C9 343.82282  236.68257   65.56141   22.45372  0.4607284  0.00179071  67.1612079  3 MPO201707    20   4 2005-2008 0.20 M-v 38h MPCW       0411          2005 LC54          20080507
K05P21L  6.6   0.15 K14C9  63.57507  210.99051   38.45156    4.73794  0.1477373  0.00312583  46.3260622  3 MPO303312    10   4 2005-2014 0.14 M-v 38h MPCADO     0010          2005 PL21          20140729
K05P21S  6.7   0.15 K14C9 273.96550  254.46194  188.61148    2.59953  0.0814123  0.00334164  44.3094241  3 MPO162425    11   4 2005-2009 0.13 M-v 38h MPCM       0010          2005 PS21          20090918
K05P21T  7.4   0.15 K14C9  22.38541  106.97338  177.15459    7.91675  0.5178132  0.00153828  74.3212886  2 MPO230205    15   4 2005-2008 0.10 M-v 38h MPCADO     0011          2005 PT21          20081024
K05P21U  6.3   0.15 K14C9 355.96912  228.07690  192.48413    6.18052  0.8323983  0.00042877 174.1749179  1 MPO230205    28   4 2000-2008 0.17 M-v 38h MPCADO     0011          2005 PU21          20081024
K05R43O  7.3   0.15 K14C9 321.94214  326.25620  198.21827   35.47615  0.5215992  0.00630620  29.0151217  2 MPO227423   143   7 2004-2010 0.16 M-v 38h MPCADO     040A          2005 RO43          20101213
K05R43P  6.1   0.15 K14C9   8.11760  346.43635  344.27481   22.97474  0.5889700  0.00109506  93.2204598  2 MPO230206    63   5 2005-2010 0.15 M-v 38h MPCADO     0411          2005 RP43          20100916
K05R43Q  6.6   0.15 K14C9  56.75221  269.64085   66.31209   20.18933  0.0929735  0.00370249  41.3815214  2 MPO285670    79   5 2005-2013 0.15 M-v 38h MPCADO     0410          2005 RQ43          20131007
K05R52H  7.8   0.15 K14C9   2.20346   32.51870  306.19720   20.46883  0.7433243  0.00052615 151.9592399  2 MPO201709    27   5 2005-2009 0.19 M-v 38h MPCW       040A          2005 RH52          20090725
K05SR8D  6.5   0.15 K14C9  24.99525  218.85586  152.71118   17.85521  0.2815544  0.00237803  55.5892447  3 MPO230208    90   4 2005-2008 0.18 M-v 38h MPCADO     040A          2005 SD278         20081024
K05SR8E  7.2   0.15 K14C9  18.90713  271.07731   95.26369    6.88819  0.1089869  0.00358455  42.2843348  2 MPO285671    70   4 2005-2013 0.14 M-v 38h MPCADO     0410          2005 SE278         20131007
K05SR8F  7.0   0.15 K14C9 348.96003  321.60194  101.68728   13.32852  0.1891655  0.00340087  43.7934697  2 MPO252019    94   5 2004-2013 0.15 M-v 38h MPCADO     0410          2005 SF278         20130112
K05T53N  9.0   0.15 K14C9 297.98196   88.26309    9.31903   25.03321  0.0675532  0.00596040  30.1267570  3 MPO285671    26   4 2005-2013 0.22 M-v 38h MPCADO     0400          2005 TN53          20131006
K05T74N  7.3   0.15 K14C9 349.63485  224.87573  179.22739    2.17157  0.2434261  0.00356521  42.4371285  4 MPO186982    19   4 2005-2010 0.35 M-v 38h MPCM       040F          2005 TN74          20100917
K05TI9V  7.5   0.15 K14C9  10.59918  186.40697  246.20590   34.37308  0.1917383  0.00395564  39.5966312  2 MPO281866    28   6 2003-2013 0.24 M-v 38h MPCADO     040E          2005 TV189         20131106
